     2.100          NAVIGATION                              RINEX VERSION / TYPE
fic2rin                                 05/28/2011 00:02:50 PGM / RUN BY / DATE
                                                            END OF HEADER
28 11  5 27  8  0  0.0  .405665487051D-04  .261479726760D-11  .000000000000D+00
     .380000000000D+02  .378125000000D+01  .442125559161D-08  .557289231345D+00
     .158324837685D-06  .169708759058D-01  .706687569618D-05  .515369436073D+04
     .460800000000D+06 -.247731804848D-06 -.292249872891D+01 -.745058059692D-08
     .974784301965D+00  .252843750000D+03 -.188765161734D+01 -.826034407649D-08
     .301798285396D-09  .100000000000D+01  .163700000000D+04  .000000000000D+00
     .240000000000D+01  .000000000000D+00 -.102445483208D-07  .380000000000D+02
     .453606000000D+06  .400000000000D+01
29 11  5 27  8  0  0.0  .210627913475D-03  .284217094304D-11  .000000000000D+00
     .810000000000D+02 -.353437500000D+02  .480591447134D-08  .272851696632D+01
    -.203959643841D-05  .262266758364D-02  .663846731186D-05  .515378735161D+04
     .460800000000D+06  .800937414169D-07 -.187898944533D+01 -.372529029846D-08
     .961341427775D+00  .251968750000D+03 -.119982595709D+01 -.813212444991D-08
    -.132148361653D-09  .100000000000D+01  .163700000000D+04  .000000000000D+00
     .340000000000D+01  .000000000000D+00 -.931322574615D-08  .810000000000D+02
     .453606000000D+06  .400000000000D+01
30 11  5 27  8  0  0.0  .393204391003D-05  .432009983342D-11  .000000000000D+00
     .124000000000D+03  .102500000000D+02  .464519349095D-08 -.300579870484D+00
     .551342964172D-06  .127440784127D-01  .699609518051D-05  .515367400932D+04
     .460800000000D+06 -.165775418282D-06 -.300660080965D+01  .838190317154D-07
     .960899487538D+00  .247718750000D+03  .152621453031D+01 -.833891877801D-08
     .438946855327D-09  .100000000000D+01  .163700000000D+04  .000000000000D+00
     .136500000000D+02  .630000000000D+02 -.838190317154D-08  .124000000000D+03
     .453606000000D+06  .400000000000D+01
31 11  5 27  8  0  0.0  .863876193762D-04  .557065504836D-11  .000000000000D+00
     .560000000000D+02 -.326875000000D+02  .382694512191D-08 -.292850757715D+01
    -.165961682796D-05  .764006713871D-02  .936724245548D-05  .515366858482D+04
     .460800000000D+06  .670552253723D-07  .228233031686D+01  .372529029846D-07
     .979672206777D+00  .209750000000D+03 -.953359765752D+00 -.759674500635D-08
     .267868300647D-10  .100000000000D+01  .163700000000D+04  .000000000000D+00
     .240000000000D+01  .000000000000D+00 -.130385160446D-07  .560000000000D+02
     .453606000000D+06  .400000000000D+01
32 11  5 27  8  0  0.0 -.261779874563D-03 -.716227077646D-11  .000000000000D+00
     .111000000000D+03  .700312500000D+02  .469340978507D-08 -.222393621109D+01
     .364892184734D-05  .121614004020D-01  .518746674061D-05  .515367293358D+04
     .460800000000D+06 -.163912773132D-06  .264230004732D+00  .191852450371D-06
     .955341143462D+00  .276562500000D+03 -.785226389020D+00 -.818784105645D-08
     .225009372544D-10  .100000000000D+01  .163700000000D+04  .000000000000D+00
     .240000000000D+01  .000000000000D+00 -.279396772385D-08  .111000000000D+03
     .453606000000D+06  .400000000000D+01
16 11  5 27  7 59 44.0 -.174918677658D-03 -.261479726760D-11  .000000000000D+00
     .190000000000D+02  .493750000000D+01  .425482008748D-08  .909702984072D+00
     .333413481712D-06  .640173046850D-02  .651367008686D-05  .515380789757D+04
     .460784000000D+06  .115483999252D-06 -.292971858220D+01  .912696123123D-07
     .976497436089D+00  .261000000000D+03 -.110606967178D+00 -.794925969000D-08
     .352157525917D-09  .100000000000D+01  .163700000000D+04  .000000000000D+00
     .240000000000D+01  .000000000000D+00 -.977888703346D-08  .190000000000D+02
     .453846000000D+06  .400000000000D+01
 7 11  5 27  7 59 44.0  .123181380332D-04  .125055521494D-11  .000000000000D+00
     .000000000000D+00 -.349687500000D+02  .394302138552D-08 -.291585609629D+01
    -.171735882759D-05  .445055856835D-02  .100955367088D-04  .515366126823D+04
     .460784000000D+06 -.316649675369D-07  .228107163970D+01  .372529029846D-08
     .974518918385D+00  .191906250000D+03 -.313427805003D+01 -.772817905253D-08
     .128933942045D-09  .100000000000D+01  .163700000000D+04  .000000000000D+00
     .240000000000D+01  .000000000000D+00 -.107102096081D-07  .000000000000D+00
     .455436000000D+06  .400000000000D+01
25 11  5 27  7 59 44.0  .127125531435D-05  .136424205266D-11  .000000000000D+00
     .100000000000D+01  .903125000000D+01  .449018703431D-08  .167314128272D+01
     .474974513054D-06  .823409180157D-03  .691413879395D-05  .515365138626D+04
     .460784000000D+06 -.614672899246D-07 -.297736542612D+01  .167638063431D-07
     .964280570636D+00  .244531250000D+03  .849271072921D+00 -.808640825993D-08
     .458947688442D-09  .100000000000D+01  .163700000000D+04  .000000000000D+00
     .240000000000D+01  .000000000000D+00  .512227416039D-08  .100000000000D+01
     .456966000000D+06  .400000000000D+01
 5 11  5 27  7 59 44.0 -.165785662830D-03 -.568434188608D-11  .000000000000D+00
     .300000000000D+01  .729062500000D+02  .482520098899D-08  .544851686163D+00
     .385567545891D-05  .221320998389D-02  .588409602642D-05  .515367728806D+04
     .460784000000D+06 -.204890966415D-07  .175236771498D+00 -.279396772385D-07
     .954606461614D+00  .257968750000D+03  .222740442559D+00 -.832856120372D-08
     .217866217860D-10  .100000000000D+01  .163700000000D+04  .000000000000D+00
     .240000000000D+01  .000000000000D+00 -.102445483208D-07  .300000000000D+01
     .460206000000D+06  .400000000000D+01
22 11  5 27  7 59 44.0  .148192979395D-03 -.568434188608D-12  .000000000000D+00
     .800000000000D+01  .734062500000D+02  .539343894410D-08  .493760359192D+00
     .399723649025D-05  .566871080082D-02  .554323196411D-05  .515370855141D+04
     .460784000000D+06 -.149011611938D-07  .197488685899D+00  .521540641785D-07
     .931137732916D+00  .257781250000D+03 -.198376903779D+01 -.869500503900D-08
    -.178578867098D-11  .100000000000D+01  .163700000000D+04  .000000000000D+00
     .240000000000D+01  .000000000000D+00 -.167638063431D-07  .800000000000D+01
     .460236000000D+06  .400000000000D+01
 5 11  5 27  9 59 44.0 -.165826641023D-03 -.568434188608D-11  .000000000000D+00
     .240000000000D+02  .740312500000D+02  .492341936589D-08  .159520938521D+01
     .406429171562D-05  .221321079880D-02  .596605241299D-05  .515367663956D+04
     .467984000000D+06  .372529029846D-07  .175176306168D+00  .428408384323D-07
     .954606805399D+00  .261500000000D+03  .222564204818D+00 -.835106214097D-08
     .971469037013D-10  .100000000000D+01  .163700000000D+04  .000000000000D+00
     .240000000000D+01  .000000000000D+00 -.102445483208D-07  .240000000000D+02
     .460806000000D+06  .400000000000D+01
 7 11  5 27  9 59 44.0  .123274512589D-04  .125055521494D-11  .000000000000D+00
     .400000000000D+01 -.341562500000D+02  .386801826134D-08 -.186570891555D+01
    -.189058482647D-05  .445023400243D-02  .989064574242D-05  .515366148758D+04
     .467984000000D+06 -.968575477600D-07  .228101630043D+01  .167638063431D-07
     .974519863430D+00  .197093750000D+03 -.313424178429D+01 -.769603485646D-08
     .903609067516D-10  .100000000000D+01  .163700000000D+04  .000000000000D+00
     .240000000000D+01  .000000000000D+00 -.107102096081D-07  .400000000000D+01
     .460806000000D+06  .400000000000D+01
22 11  5 27  9 59 44.0  .148189254105D-03 -.568434188608D-12  .000000000000D+00
     .100000000000D+02  .755625000000D+02  .538808157808D-08  .154396924289D+01
     .388175249100D-05  .566884409636D-02  .579655170441D-05  .515370828629D+04
     .467984000000D+06 -.165775418282D-06  .197425679481D+00 -.502914190292D-07
     .931138442431D+00  .254687500000D+03 -.198381176963D+01 -.857750014445D-08
     .109290266664D-09  .100000000000D+01  .163700000000D+04  .000000000000D+00
     .240000000000D+01  .000000000000D+00 -.167638063431D-07  .100000000000D+02
     .460806000000D+06  .400000000000D+01
25 11  5 27  9 59 44.0  .128056854010D-05  .136424205266D-11  .000000000000D+00
     .900000000000D+01  .965625000000D+01  .440518349357D-08  .272428252654D+01
     .579282641411D-06  .824034679681D-03  .752136111259D-05  .515364949608D+04
     .467984000000D+06  .223517417908D-07 -.297742337962D+01  .204890966415D-07
     .964284299614D+00  .237468750000D+03  .848324389373D+00 -.799604735318D-08
     .459662003910D-09  .100000000000D+01  .163700000000D+04  .000000000000D+00
     .240000000000D+01  .000000000000D+00  .512227416039D-08  .900000000000D+01
     .460806000000D+06  .400000000000D+01
 2 11  5 27 10  0  0.0  .338576268405D-03  .204636307899D-11  .000000000000D+00
     .380000000000D+02  .225312500000D+02  .512771358985D-08 -.317792231059D+00
     .120885670185D-05  .102829845855D-01  .104811042547D-04  .515376203918D+04
     .468000000000D+06  .149011611938D-06 -.886252056161D+00  .335276126862D-07
     .938899446668D+00  .165812500000D+03 -.299097333795D+01 -.831070331701D-08
    -.108218793461D-09  .100000000000D+01  .163700000000D+04  .000000000000D+00
     .240000000000D+01  .000000000000D+00 -.172294676304D-07  .380000000000D+02
     .460806000000D+06  .400000000000D+01
 3 11  5 27 10  0  0.0  .720534007996D-03  .500222085975D-11  .000000000000D+00
     .950000000000D+02 -.246562500000D+02  .562773441773D-08 -.210611116661D+00
    -.123493373394D-05  .142267673509D-01  .588223338127D-05  .515365257263D+04
     .468000000000D+06 -.856816768646D-07 -.204458982183D+01  .145286321640D-06
     .928565267545D+00  .252531250000D+03  .109094305203D+01 -.885715465033D-08
    -.232152527227D-10  .100000000000D+01  .163700000000D+04  .000000000000D+00
     .240000000000D+01  .000000000000D+00 -.465661287308D-08  .950000000000D+02
     .460806000000D+06  .400000000000D+01
